NORAD_CAT_ID,OBJECT_NAME,OBJECT_TYPE,EPOCH,MEAN_MOTION,ECCENTRICITY,INCLINATION,RA_OF_ASC_NODE,ARG_OF_PERICENTER,MEAN_ANOMALY,BSTAR,MEAN_MOTION_DOT,MEAN_MOTION_DDOT,TLE_LINE0,TLE_LINE1,TLE_LINE2,SEMIMAJOR_AXIS,PERIOD,APOGEE,PERIGEE,DECAYED
55629.0,STARLINK-5497,PAYLOAD,2023-10-19 07:47:53,14.98333688,0.0002368,70.0014,244.1081,266.6313,93.4576,4.3323e-05,4.24e-06,0.0,0 STARLINK-5497,1 55629U 23021B   23292.32492748  .00000424  00000-0  43323-4 0  9991,2 55629  70.0014 244.1081 0002368 266.6313  93.4576 14.98333688 37622,6950.181,96.107,573.692,570.401,0.0
55629.0,STARLINK-5497,PAYLOAD,2023-10-19 19:00:50,14.98327033,0.0003125,70.0005,242.9294,271.4937,88.5864,-1.0123e-05,-2.14e-06,0.0,0 STARLINK-5497,1 55629U 23021B   23292.79225086 -.00000214  00000-0 -10123-4 0  9992,2 55629  70.0005 242.9294 0003125 271.4937  88.5864 14.98327033 37691,6950.202,96.107,574.239,569.895,0.0
55629.0,STARLINK-5497,PAYLOAD,2023-10-20 04:37:39,14.98318259,0.0002468,70.0006,241.9189,264.7059,95.3818,-0.00012761,-1.615e-05,0.0,0 STARLINK-5497,1 55629U 23021B   23293.19281900 -.00001615  00000-0 -12761-3 0  9999,2 55629  70.0006 241.9189 0002468 264.7059  95.3818 14.98318259 37452,6950.229,96.108,573.81,570.379,0.0
55629.0,STARLINK-5497,PAYLOAD,2023-10-20 06:13:46,14.98334754,0.000283,70.0001,241.7501,267.0309,93.0526,3.2951e-05,3e-06,0.0,0 STARLINK-5497,1 55629U 23021B   23293.25956466  .00000300  00000-0  32951-4 0  9994,2 55629  70.0001 241.7501 0002830 267.0309  93.0526 14.98334754 37460,6950.178,96.107,574.01,570.076,0.0
55629.0,STARLINK-5497,PAYLOAD,2023-10-20 22:15:07,14.98326103,0.0002506,70.0011,240.0667,267.5955,92.4917,-4.4815e-05,-6.28e-06,0.0,0 STARLINK-5497,1 55629U 23021B   23293.92717358 -.00000628  00000-0 -44815-4 0  9990,2 55629  70.0011 240.0667 0002506 267.5955  92.4917 14.98326103 37868,6950.205,96.107,573.812,570.328,0.0
55629.0,STARLINK-5497,PAYLOAD,2023-10-21 03:03:32,14.98325482,0.000278,69.9999,239.563,266.2984,93.7857,-5.2079e-05,-7.14e-06,0.0,0 STARLINK-5497,1 55629U 23021B   23294.12745436 -.00000714  00000-0 -52079-4 0  9998,2 55629  69.9999 239.5630 0002780 266.2984  93.7857 14.98325482 37591,6950.207,96.107,574.004,570.14,0.0
55629.0,STARLINK-5497,PAYLOAD,2023-10-21 14:16:27,14.98337126,0.0002924,70.0001,238.385,268.9147,91.1677,-1.8019e-05,-3.08e-06,0.0,0 STARLINK-5497,1 55629U 23021B   23294.59476583 -.00000308  00000-0 -18019-4 0  9998,2 55629  70.0001 238.3850 0002924 268.9147  91.1677 14.98337126 37960,6950.171,96.107,574.068,570.004,0.0
55629.0,STARLINK-5497,PAYLOAD,2023-10-21 19:04:51,14.98332287,0.0003115,69.9998,237.8793,267.797,92.2832,0.00010597,1.172e-05,0.0,0 STARLINK-5497,1 55629U 23021B   23294.79504433  .00001172  00000-0  10597-3 0  9996,2 55629  69.9998 237.8793 0003115 267.7970  92.2832 14.98332287 37694,6950.186,96.107,574.216,569.886,0.0
55629.0,STARLINK-5497,PAYLOAD,2023-10-21 22:17:07,14.98335128,0.0002895,69.9999,237.5432,263.188,96.895,0.00013971,1.575e-05,0.0,0 STARLINK-5497,1 55629U 23021B   23294.92856114  .00001575  00000-0  13971-3 0  9993,2 55629  69.9999 237.5432 0002895 263.1880  96.8950 14.98335128 38011,6950.177,96.107,574.054,570.03,0.0
55629.0,STARLINK-5497,PAYLOAD,2023-10-22 04:41:39,14.98342212,0.000288,70.0,236.8693,262.0055,98.0777,0.0002268,2.615e-05,0.0,0 STARLINK-5497,1 55629U 23021B   23295.19559322  .00002615  00000-0  22680-3 0  9997,2 55629  70.0000 236.8693 0002880 262.0055  98.0777 14.98342212 37757,6950.155,96.106,574.022,570.018,0.0
55629.0,STARLINK-5497,PAYLOAD,2023-10-22 06:17:47,14.98344091,0.0002886,70.0,236.701,261.6635,98.4196,0.00024356,2.815e-05,0.0,0 STARLINK-5497,1 55629U 23021B   23295.26235113  .00002815  00000-0  24356-3 0  9998,2 55629  70.0000 236.7010 0002886 261.6635  98.4196 14.98344091 38065,6950.149,96.106,574.02,570.009,0.0
55629.0,STARLINK-5497,PAYLOAD,2023-10-22 20:43:01,14.98326659,0.0002731,69.9995,235.1871,267.9269,92.1577,3.7471e-05,3.54e-06,0.0,0 STARLINK-5497,1 55629U 23021B   23295.86320864  .00000354  00000-0  37471-4 0  9991,2 55629  69.9995 235.1871 0002731 267.9269  92.1577 14.98326659 37854,6950.203,96.107,573.966,570.17,0.0
55629.0,STARLINK-5497,PAYLOAD,2023-10-22 22:19:09,14.9832642,0.0002778,69.9995,235.0187,267.7147,92.3694,4.0012e-05,3.84e-06,0.0,0 STARLINK-5497,1 55629U 23021B   23295.92996868  .00000384  00000-0  40012-4 0  9999,2 55629  69.9995 235.0187 0002778 267.7147  92.3694 14.98326420 38160,6950.204,96.107,574.0,570.138,0.0
55629.0,STARLINK-5497,PAYLOAD,2023-10-23 04:43:42,14.98319351,0.0002822,69.9999,234.3459,266.6754,93.4082,-3.1963e-05,-4.74e-06,0.0,0 STARLINK-5497,1 55629U 23021B   23296.19701639 -.00000474  00000-0 -31963-4 0  9996,2 55629  69.9999 234.3459 0002822 266.6754  93.4082 14.98319351 37909,6950.226,96.108,574.052,570.129,0.0
55629.0,STARLINK-5497,PAYLOAD,2023-10-23 20:45:02,14.98329637,0.0003008,69.9998,232.6617,270.9594,89.122,-8.5856e-05,-1.117e-05,0.0,0 STARLINK-5497,1 55629U 23021B   23296.86461216 -.00001117  00000-0 -85856-4 0  9999,2 55629  69.9998 232.6617 0003008 270.9594  89.1220 14.98329637 38008,6950.194,96.107,574.15,569.968,0.0
55629.0,STARLINK-5497,PAYLOAD,2023-10-23 22:21:10,14.98330274,0.0002998,70.0,232.4933,271.1885,88.893,-8.8973e-05,-1.154e-05,0.0,0 STARLINK-5497,1 55629U 23021B   23296.93137192 -.00001154  00000-0 -88973-4 0  9994,2 55629  70.0000 232.4933 0002998 271.1885  88.8930 14.98330274 38314,6950.192,96.107,574.141,569.973,0.0
55629.0,STARLINK-5497,PAYLOAD,2023-10-24 04:45:41,14.98377753,0.0002926,70.0003,231.821,272.4925,87.5899,-0.00080571,-9.705e-05,0.0,0 STARLINK-5497,1 55629U 23021B   23297.19839595 -.00009705  00000-0 -80571-3 0  9994,2 55629  70.0003 231.8210 0002926 272.4925  87.5899 14.98377753 38052,6950.045,96.104,573.944,569.877,0.0
55629.0,STARLINK-5497,PAYLOAD,2023-10-24 06:21:50,14.98334582,0.0002841,70.0003,231.6518,270.5406,89.5427,-6.0678e-06,-1.65e-06,0.0,0 STARLINK-5497,1 55629U 23021B   23297.26516660 -.00000165  00000-0 -60678-5 0  9996,2 55629  70.0003 231.6518 0002841 270.5406  89.5427 14.98334582 38063,6950.179,96.107,574.018,570.069,0.0
55629.0,STARLINK-5497,PAYLOAD,2023-10-24 12:46:22,14.98358673,0.000219,70.0006,230.9786,275.8268,84.2642,-0.00032402,-3.96e-05,0.0,0 STARLINK-5497,1 55629U 23021B   23297.53219925 -.00003960  00000-0 -32402-3 0  9998,2 55629  70.0006 230.9786 0002190 275.8268  84.2642 14.98358673 38402,6950.104,96.105,573.491,570.447,0.0
55629.0,STARLINK-5497,PAYLOAD,2023-10-25 04:47:42,14.98334802,0.0002842,70.0003,229.2961,275.6189,84.4646,0.00013845,1.56e-05,0.0,0 STARLINK-5497,1 55629U 23021B   23298.19980140  .00001560  00000-0  13845-3 0  9997,2 55629  70.0003 229.2961 0002842 275.6189  84.4646 14.98334802 38504,6950.178,96.107,574.018,570.068,0.0
55629.0,STARLINK-5497,PAYLOAD,2023-10-26 04:49:44,14.98316931,0.0002898,70.001,226.7703,270.0997,89.983,0.00023766,2.743e-05,0.0,0 STARLINK-5497,1 55629U 23021B   23299.20121070  .00002743  00000-0  23766-3 0  9996,2 55629  70.0010 226.7703 0002898 270.0997  89.9830 14.98316931 38356,6950.233,96.108,574.112,570.084,0.0
55629.0,STARLINK-5497,PAYLOAD,2023-10-26 20:51:04,14.98334567,0.0002745,70.0002,225.088,269.8629,90.2215,-9.9942e-07,-1.05e-06,0.0,0 STARLINK-5497,1 55629U 23021B   23299.86880356 -.00000105  00000-0 -99942-6 0  9991,2 55629  70.0002 225.0880 0002745 269.8629  90.2215 14.98334567 38755,6950.179,96.107,573.952,570.136,0.0
55629.0,STARLINK-5497,PAYLOAD,2023-10-27 04:51:44,14.98344107,0.0002686,70.0004,224.2462,269.0802,91.0049,7.9701e-05,8.58e-06,0.0,0 STARLINK-5497,1 55629U 23021B   23300.20259361  .00000858  00000-0  79701-4 0  9990,2 55629  70.0004 224.2462 0002686 269.0802  91.0049 14.98344107 38501,6950.149,96.106,573.881,570.147,0.0
55629.0,STARLINK-5497,PAYLOAD,2023-10-27 12:52:25,14.98331013,0.000244,70.0025,223.4057,266.2831,93.8049,-1.463e-05,-2.67e-06,0.0,0 STARLINK-5497,1 55629U 23021B   23300.53640266 -.00000267  00000-0 -14630-4 0  9990,2 55629  70.0025 223.4057 0002440 266.2831  93.8049 14.98331013 38854,6950.19,96.107,573.751,570.359,0.0
55629.0,STARLINK-5497,PAYLOAD,2023-10-27 20:53:05,14.98322236,0.0002786,70.0005,222.5635,267.0037,93.0804,-4.9193e-06,-1.52e-06,0.0,0 STARLINK-5497,1 55629U 23021B   23300.87020817 -.00000152  00000-0 -49193-5 0  9997,2 55629  70.0005 222.5635 0002786 267.0037  93.0804 14.98322236 38605,6950.217,96.107,574.018,570.146,0.0
55629.0,STARLINK-5497,PAYLOAD,2023-10-27 22:29:16,14.98298798,0.0003171,70.0002,222.3942,290.9219,69.1601,-0.00023642,-2.911e-05,0.0,0 STARLINK-5497,1 55629U 23021B   23300.93699081 -.00002911  00000-0 -23642-3 0  9993,2 55629  70.0002 222.3942 0003171 290.9219  69.1601 14.98298798 38915,6950.289,96.109,574.358,569.95,0.0
55629.0,STARLINK-5497,PAYLOAD,2023-10-28 01:41:33,14.9828803,0.0002739,70.0002,222.0579,270.3598,89.7247,-0.00042078,-5.104e-05,0.0,0 STARLINK-5497,1 55629U 23021B   23301.07052414 -.00005104  00000-0 -42078-3 0  9993,2 55629  70.0002 222.0579 0002739 270.3598  89.7247 14.98288030 38630,6950.323,96.11,574.091,570.284,0.0
55629.0,STARLINK-5497,PAYLOAD,2023-10-28 04:53:49,14.98284586,0.0002895,70.0001,221.7215,271.149,88.9337,-0.00044597,-5.404e-05,0.0,0 STARLINK-5497,1 55629U 23021B   23301.20405035 -.00005404  00000-0 -44597-3 0  9990,2 55629  70.0001 221.7215 0002895 271.1490  88.9337 14.98284586 38953,6950.333,96.11,574.21,570.186,0.0
55629.0,STARLINK-5497,PAYLOAD,2023-10-28 20:55:08,14.9832023,0.0002752,70.0011,220.0372,270.3125,89.7719,-5.4046e-05,-7.38e-06,0.0,0 STARLINK-5497,1 55629U 23021B   23301.87162576 -.00000738  00000-0 -54046-4 0  9999,2 55629  70.0011 220.0372 0002752 270.3125  89.7719 14.98320230 38756,6950.223,96.108,574.001,570.175,0.0
55629.0,STARLINK-5497,PAYLOAD,2023-10-28 22:31:14,14.98343119,0.0002609,70.0006,219.8709,251.274,108.8137,8.213e-05,8.87e-06,0.0,0 STARLINK-5497,1 55629U 23021B   23301.93836770  .00000887  00000-0  82130-4 0  9998,2 55629  70.0006 219.8709 0002609 251.2740 108.8137 14.98343119 39065,6950.152,96.106,573.831,570.204,0.0
